[{"COMMENT":"GENERATED VIA SPACETRACK.ORG API","ORIGINATOR":"18 SPCS","NORAD_CAT_ID":"43477","OBJECT_NAME":"GRACE-FO 2","OBJECT_TYPE":"PAYLOAD","CLASSIFICATION_TYPE":"U","INTLDES":"18047B","EPOCH":"2023-03-02 20:05:24","EPOCH_MICROSECONDS":"452448","MEAN_MOTION":"15.25290835","ECCENTRICITY":"0.0017452","INCLINATION":"88.9949","RA_OF_ASC_NODE":"3.5452","ARG_OF_PERICENTER":"85.596","MEAN_ANOMALY":"274.7282","EPHEMERIS_TYPE":"0","ELEMENT_SET_NO":"999","REV_AT_EPOCH":"26578","BSTAR":"0.00020519","MEAN_MOTION_DOT":"0.00005212","MEAN_MOTION_DDOT":"0","FILE":"3849487","TLE_LINE0":"0 GRACE-FO 2","TLE_LINE1":"1 43477U 18047B   23061.83708857  .00005212  00000-0  20519-3 0  9993","TLE_LINE2":"2 43477  88.9949   3.5452 0017452  85.5960 274.7282 15.25290835265785","OBJECT_ID":"2018-047B","OBJECT_NUMBER":"43477","SEMIMAJOR_AXIS":"6868.049","PERIOD":"94.408","APOGEE":"501.900","PERIGEE":"477.928","DECAYED":"0"},{"COMMENT":"GENERATED VIA SPACETRACK.ORG API","ORIGINATOR":"18 SPCS","NORAD_CAT_ID":"43477","OBJECT_NAME":"GRACE-FO 2","OBJECT_TYPE":"PAYLOAD","CLASSIFICATION_TYPE":"U","INTLDES":"18047B","EPOCH":"2023-03-03 13:24:37","EPOCH_MICROSECONDS":"211328","MEAN_MOTION":"15.25300502","ECCENTRICITY":"0.001744","INCLINATION":"88.9951","RA_OF_ASC_NODE":"3.4479","ARG_OF_PERICENTER":"83.4172","MEAN_ANOMALY":"276.9061","EPHEMERIS_TYPE":"0","ELEMENT_SET_NO":"999","REV_AT_EPOCH":"26589","BSTAR":"0.00023292","MEAN_MOTION_DOT":"0.00005914","MEAN_MOTION_DDOT":"0","FILE":"3850163","TLE_LINE0":"0 GRACE-FO 2","TLE_LINE1":"1 43477U 18047B   23062.55876402  .00005914  00000-0  23292-3 0  9995","TLE_LINE2":"2 43477  88.9951   3.4479 0017440  83.4172 276.9061 15.25300502265899","OBJECT_ID":"2018-047B","OBJECT_NUMBER":"43477","SEMIMAJOR_AXIS":"6868.020","PERIOD":"94.408","APOGEE":"501.863","PERIGEE":"477.907","DECAYED":"0"},{"COMMENT":"GENERATED VIA SPACETRACK.ORG API","ORIGINATOR":"18 SPCS","NORAD_CAT_ID":"43477","OBJECT_NAME":"GRACE-FO 2","OBJECT_TYPE":"PAYLOAD","CLASSIFICATION_TYPE":"U","INTLDES":"18047B","EPOCH":"2023-03-03 21:16:59","EPOCH_MICROSECONDS":"249568","MEAN_MOTION":"15.25305207","ECCENTRICITY":"0.0017432","INCLINATION":"88.9952","RA_OF_ASC_NODE":"3.4037","ARG_OF_PERICENTER":"82.4091","MEAN_ANOMALY":"277.9137","EPHEMERIS_TYPE":"0","ELEMENT_SET_NO":"999","REV_AT_EPOCH":"26594","BSTAR":"0.00024602","MEAN_MOTION_DOT":"0.00006246","MEAN_MOTION_DDOT":"0","FILE":"3850400","TLE_LINE0":"0 GRACE-FO 2","TLE_LINE1":"1 43477U 18047B   23062.88679687  .00006246  00000-0  24602-3 0  9992","TLE_LINE2":"2 43477  88.9952   3.4037 0017432  82.4091 277.9137 15.25305207265948","OBJECT_ID":"2018-047B","OBJECT_NUMBER":"43477","SEMIMAJOR_AXIS":"6868.006","PERIOD":"94.407","APOGEE":"501.843","PERIGEE":"477.899","DECAYED":"0"},{"COMMENT":"GENERATED VIA SPACETRACK.ORG API","ORIGINATOR":"18 SPCS","NORAD_CAT_ID":"43477","OBJECT_NAME":"GRACE-FO 2","OBJECT_TYPE":"PAYLOAD","CLASSIFICATION_TYPE":"U","INTLDES":"18047B","EPOCH":"2023-03-04 03:34:52","EPOCH_MICROSECONDS":"848192","MEAN_MOTION":"15.2530761","ECCENTRICITY":"0.0017428","INCLINATION":"88.9952","RA_OF_ASC_NODE":"3.3684","ARG_OF_PERICENTER":"81.4985","MEAN_ANOMALY":"278.8237","EPHEMERIS_TYPE":"0","ELEMENT_SET_NO":"999","REV_AT_EPOCH":"26598","BSTAR":"0.00023547","MEAN_MOTION_DOT":"0.0000598","MEAN_MOTION_DDOT":"0","FILE":"3850534","TLE_LINE0":"0 GRACE-FO 2","TLE_LINE1":"1 43477U 18047B   23063.14922278  .00005980  00000-0  23547-3 0  9990","TLE_LINE2":"2 43477  88.9952   3.3684 0017428  81.4985 278.8237 15.25307610265986","OBJECT_ID":"2018-047B","OBJECT_NUMBER":"43477","SEMIMAJOR_AXIS":"6867.999","PERIOD":"94.407","APOGEE":"501.833","PERIGEE":"477.894","DECAYED":"0"},{"COMMENT":"GENERATED VIA SPACETRACK.ORG API","ORIGINATOR":"18 SPCS","NORAD_CAT_ID":"43477","OBJECT_NAME":"GRACE-FO 2","OBJECT_TYPE":"PAYLOAD","CLASSIFICATION_TYPE":"U","INTLDES":"18047B","EPOCH":"2023-03-04 13:01:43","EPOCH_MICROSECONDS":"86720","MEAN_MOTION":"15.25314117","ECCENTRICITY":"0.0017434","INCLINATION":"88.9954","RA_OF_ASC_NODE":"3.3153","ARG_OF_PERICENTER":"80.2914","MEAN_ANOMALY":"280.0302","EPHEMERIS_TYPE":"0","ELEMENT_SET_NO":"999","REV_AT_EPOCH":"26604","BSTAR":"0.00026513","MEAN_MOTION_DOT":"0.00006731","MEAN_MOTION_DDOT":"0","FILE":"3851072","TLE_LINE0":"0 GRACE-FO 2","TLE_LINE1":"1 43477U 18047B   23063.54285980  .00006731  00000-0  26513-3 0  9997","TLE_LINE2":"2 43477  88.9954   3.3153 0017434  80.2914 280.0302 15.25314117266041","OBJECT_ID":"2018-047B","OBJECT_NUMBER":"43477","SEMIMAJOR_AXIS":"6867.979","PERIOD":"94.407","APOGEE":"501.818","PERIGEE":"477.871","DECAYED":"0"},{"COMMENT":"GENERATED VIA SPACETRACK.ORG API","ORIGINATOR":"18 SPCS","NORAD_CAT_ID":"43477","OBJECT_NAME":"GRACE-FO 2","OBJECT_TYPE":"PAYLOAD","CLASSIFICATION_TYPE":"U","INTLDES":"18047B","EPOCH":"2023-03-04 20:54:04","EPOCH_MICROSECONDS":"886496","MEAN_MOTION":"15.25317439","ECCENTRICITY":"0.0017409","INCLINATION":"88.9954","RA_OF_ASC_NODE":"3.2711","ARG_OF_PERICENTER":"79.2504","MEAN_ANOMALY":"281.0703","EPHEMERIS_TYPE":"0","ELEMENT_SET_NO":"999","REV_AT_EPOCH":"26609","BSTAR":"0.00024029","MEAN_MOTION_DOT":"0.00006103","MEAN_MOTION_DDOT":"0","FILE":"3851350","TLE_LINE0":"0 GRACE-FO 2","TLE_LINE1":"1 43477U 18047B   23063.87088989  .00006103  00000-0  24029-3 0  9996","TLE_LINE2":"2 43477  88.9954   3.2711 0017409  79.2504 281.0703 15.25317439266096","OBJECT_ID":"2018-047B","OBJECT_NUMBER":"43477","SEMIMAJOR_AXIS":"6867.969","PERIOD":"94.407","APOGEE":"501.791","PERIGEE":"477.878","DECAYED":"0"},{"COMMENT":"GENERATED VIA SPACETRACK.ORG API","ORIGINATOR":"18 SPCS","NORAD_CAT_ID":"43477","OBJECT_NAME":"GRACE-FO 2","OBJECT_TYPE":"PAYLOAD","CLASSIFICATION_TYPE":"U","INTLDES":"18047B","EPOCH":"2023-03-05 11:04:19","EPOCH_MICROSECONDS":"925472","MEAN_MOTION":"15.25325232","ECCENTRICITY":"0.001738","INCLINATION":"88.9956","RA_OF_ASC_NODE":"3.1915","ARG_OF_PERICENTER":"77.3924","MEAN_ANOMALY":"282.9267","EPHEMERIS_TYPE":"0","ELEMENT_SET_NO":"999","REV_AT_EPOCH":"26618","BSTAR":"0.00024895","MEAN_MOTION_DOT":"0.00006323","MEAN_MOTION_DDOT":"0","FILE":"3851713","TLE_LINE0":"0 GRACE-FO 2","TLE_LINE1":"1 43477U 18047B   23064.46134173  .00006323  00000-0  24895-3 0  9994","TLE_LINE2":"2 43477  88.9956   3.1915 0017380  77.3924 282.9267 15.25325232266181","OBJECT_ID":"2018-047B","OBJECT_NUMBER":"43477","SEMIMAJOR_AXIS":"6867.946","PERIOD":"94.406","APOGEE":"501.747","PERIGEE":"477.875","DECAYED":"0"},{"COMMENT":"GENERATED VIA SPACETRACK.ORG API","ORIGINATOR":"18 SPCS","NORAD_CAT_ID":"43477","OBJECT_NAME":"GRACE-FO 2","OBJECT_TYPE":"PAYLOAD","CLASSIFICATION_TYPE":"U","INTLDES":"18047B","EPOCH":"2023-03-05 14:13:16","EPOCH_MICROSECONDS":"567104","MEAN_MOTION":"15.25327418","ECCENTRICITY":"0.001737","INCLINATION":"88.9957","RA_OF_ASC_NODE":"3.1739","ARG_OF_PERICENTER":"77.0169","MEAN_ANOMALY":"283.3018","EPHEMERIS_TYPE":"0","ELEMENT_SET_NO":"999","REV_AT_EPOCH":"26620","BSTAR":"0.00026177","MEAN_MOTION_DOT":"0.00006648","MEAN_MOTION_DDOT":"0","FILE":"3851939","TLE_LINE0":"0 GRACE-FO 2","TLE_LINE1":"1 43477U 18047B   23064.59255286  .00006648  00000-0  26177-3 0  9992","TLE_LINE2":"2 43477  88.9957   3.1739 0017370  77.0169 283.3018 15.25327418266203","OBJECT_ID":"2018-047B","OBJECT_NUMBER":"43477","SEMIMAJOR_AXIS":"6867.939","PERIOD":"94.406","APOGEE":"501.734","PERIGEE":"477.875","DECAYED":"0"},{"COMMENT":"GENERATED VIA SPACETRACK.ORG API","ORIGINATOR":"18 SPCS","NORAD_CAT_ID":"43477","OBJECT_NAME":"GRACE-FO 2","OBJECT_TYPE":"PAYLOAD","CLASSIFICATION_TYPE":"U","INTLDES":"18047B","EPOCH":"2023-03-05 22:05:38","EPOCH_MICROSECONDS":"95584","MEAN_MOTION":"15.25332543","ECCENTRICITY":"0.0017347","INCLINATION":"88.9958","RA_OF_ASC_NODE":"3.1297","ARG_OF_PERICENTER":"75.9846","MEAN_ANOMALY":"284.3329","EPHEMERIS_TYPE":"0","ELEMENT_SET_NO":"999","REV_AT_EPOCH":"26625","BSTAR":"0.00027566","MEAN_MOTION_DOT":"0.00007","MEAN_MOTION_DDOT":"0","FILE":"3852256","TLE_LINE0":"0 GRACE-FO 2","TLE_LINE1":"1 43477U 18047B   23064.92057981  .00007000  00000-0  27566-3 0  9997","TLE_LINE2":"2 43477  88.9958   3.1297 0017347  75.9846 284.3329 15.25332543266252","OBJECT_ID":"2018-047B","OBJECT_NUMBER":"43477","SEMIMAJOR_AXIS":"6867.924","PERIOD":"94.406","APOGEE":"501.703","PERIGEE":"477.875","DECAYED":"0"},{"COMMENT":"GENERATED VIA SPACETRACK.ORG API","ORIGINATOR":"18 SPCS","NORAD_CAT_ID":"43477","OBJECT_NAME":"GRACE-FO 2","OBJECT_TYPE":"PAYLOAD","CLASSIFICATION_TYPE":"U","INTLDES":"18047B","EPOCH":"2023-03-06 18:33:45","EPOCH_MICROSECONDS":"702432","MEAN_MOTION":"15.25343691","ECCENTRICITY":"0.0017291","INCLINATION":"88.9961","RA_OF_ASC_NODE":"3.0149","ARG_OF_PERICENTER":"73.3267","MEAN_ANOMALY":"286.9878","EPHEMERIS_TYPE":"0","ELEMENT_SET_NO":"999","REV_AT_EPOCH":"26638","BSTAR":"0.00027557","MEAN_MOTION_DOT":"0.00007","MEAN_MOTION_DDOT":"0","FILE":"3852930","TLE_LINE0":"0 GRACE-FO 2","TLE_LINE1":"1 43477U 18047B   23065.77344563  .00007000  00000-0  27557-3 0  9996","TLE_LINE2":"2 43477  88.9961   3.0149 0017291  73.3267 286.9878 15.25343691266385","OBJECT_ID":"2018-047B","OBJECT_NUMBER":"43477","SEMIMAJOR_AXIS":"6867.891","PERIOD":"94.405","APOGEE":"501.631","PERIGEE":"477.880","DECAYED":"0"}]